{"type": "FeatureCollection", "features": [ {"type": "Feature", "properties": {"norad_id": 66456, "name": "STARLINK-35643", "group": "last-30-days", "lat": -32.75914954338876, "lon": -3.9300838133306093, "alt_km": 374.65735632110227, "timestamp": "2025-12-02T07:10:07.866289+00:00", "meta": {"OBJECT_NAME": "STARLINK-35643", "OBJECT_ID": "2025-262A", "EPOCH": "2025-12-01T20:00:01.999008", "MEAN_MOTION": 15.6729493, "ECCENTRICITY": 0.0001409, "INCLINATION": 42.999, "RA_OF_ASC_NODE": 135.1844, "ARG_OF_PERICENTER": 282.9514, "MEAN_ANOMALY": 202.5194, "EPHEMERIS_TYPE": 0, "CLASSIFICATION_TYPE": "U", "NORAD_CAT_ID": 66456, "ELEMENT_SET_NO": 999, "REV_AT_EPOCH": 388, "BSTAR": -0.021033, "MEAN_MOTION_DOT": -0.02045753, "MEAN_MOTION_DDOT": 0}, "tle": {"line1": "1 66456U 25262A   25335.83335647 -.02045753  00000+0 -21033-1 0  9998", "line2": "2 66456  42.9990 135.1844 0001409 282.9514 202.5194 15.67294930  3881"}}, "geometry": {"type": "Point", "coordinates": [-3.9300838133306093, -32.75914954338876]}}, {"type": "Feature", "properties": {"norad_id": 66457, "name": "STARLINK-35466", "group": "last-30-days", "lat": -34.58220292478466, "lon": 0.10559377789618966, "alt_km": 374.82119488059107, "timestamp": "2025-12-02T07:10:07.866308+00:00", "meta": {"OBJECT_NAME": "STARLINK-35466", "OBJECT_ID": "2025-262B", "EPOCH": "2025-12-01T20:00:01.999008", "MEAN_MOTION": 15.67287379, "ECCENTRICITY": 0.0001348, "INCLINATION": 42.9992, "RA_OF_ASC_NODE": 135.1747, "ARG_OF_PERICENTER": 288.7442, "MEAN_ANOMALY": 200.5601, "EPHEMERIS_TYPE": 0, "CLASSIFICATION_TYPE": "U", "NORAD_CAT_ID": 66457, "ELEMENT_SET_NO": 999, "REV_AT_EPOCH": 388, "BSTAR": -0.02089, "MEAN_MOTION_DOT": -0.02032999, "MEAN_MOTION_DDOT": 0}, "tle": {"line1": "1 66457U 25262B   25335.83335647 -.02032999  00000+0 -20890-1 0  9997", "line2": "2 66457  42.9992 135.1747 0001348 288.7442 200.5601 15.67287379  3882"}}, "geometry": {"type": "Point", "coordinates": [0.10559377789618966, -34.58220292478466]}}, {"type": "Feature", "properties": {"norad_id": 66458, "name": "STARLINK-35684", "group": "last-30-days", "lat": -33.68652401376482, "lon": -1.935237742250829, "alt_km": 374.7176634529451, "timestamp": "2025-12-02T07:10:07.866327+00:00", "meta": {"OBJECT_NAME": "STARLINK-35684", "OBJECT_ID": "2025-262C", "EPOCH": "2025-12-01T20:00:01.999008", "MEAN_MOTION": 15.67299093, "ECCENTRICITY": 0.0001441, "INCLINATION": 42.999, "RA_OF_ASC_NODE": 135.1792, "ARG_OF_PERICENTER": 285.3441, "MEAN_ANOMALY": 202.0404, "EPHEMERIS_TYPE": 0, "CLASSIFICATION_TYPE": "U", "NORAD_CAT_ID": 66458, "ELEMENT_SET_NO": 999, "REV_AT_EPOCH": 388, "BSTAR": -0.021089, "MEAN_MOTION_DOT": -0.02050855, "MEAN_MOTION_DDOT": 0}, "tle": {"line1": "1 66458U 25262C   25335.83335647 -.02050855  00000+0 -21089-1 0  9990", "line2": "2 66458  42.9990 135.1792 0001441 285.3441 202.0404 15.67299093  3881"}}, "geometry": {"type": "Point", "coordinates": [-1.935237742250829, -33.68652401376482]}}, {"type": "Feature", "properties": {"norad_id": 66459, "name": "STARLINK-35449", "group": "last-30-days", "lat": -35.442735966667996, "lon": 2.1898364136467783, "alt_km": 374.7797421684336, "timestamp": "2025-12-02T07:10:07.866348+00:00", "meta": {"OBJECT_NAME": "STARLINK-35449", "OBJECT_ID": "2025-262D", "EPOCH": "2025-12-01T20:00:01.999008", "MEAN_MOTION": 15.67298732, "ECCENTRICITY": 0.0001394, "INCLINATION": 42.9988, "RA_OF_ASC_NODE": 135.1693, "ARG_OF_PERICENTER": 286.248, "MEAN_ANOMALY": 204.9708, "EPHEMERIS_TYPE": 0, "CLASSIFICATION_TYPE": "U", "NORAD_CAT_ID": 66459, "ELEMENT_SET_NO": 999, "REV_AT_EPOCH": 388, "BSTAR": -0.021077, "MEAN_MOTION_DOT": -0.02049748, "MEAN_MOTION_DDOT": 0}, "tle": {"line1": "1 66459U 25262D   25335.83335647 -.02049748  00000+0 -21077-1 0  9997", "line2": "2 66459  42.9988 135.1693 0001394 286.2480 204.9708 15.67298732  3886"}}, "geometry": {"type": "Point", "coordinates": [2.1898364136467783, -35.442735966667996]}}, {"type": "Feature", "properties": {"norad_id": 66460, "name": "STARLINK-35424", "group": "last-30-days", "lat": -36.267627658111934, "lon": 4.320727898850245, "alt_km": 374.6815036314292, "timestamp": "2025-12-02T07:10:07.866367+00:00", "meta": {"OBJECT_NAME": "STARLINK-35424", "OBJECT_ID": "2025-262E", "EPOCH": "2025-12-01T20:00:01.999008", "MEAN_MOTION": 15.67291476, "ECCENTRICITY": 0.0001421, "INCLINATION": 42.999, "RA_OF_ASC_NODE": 135.1648, "ARG_OF_PERICENTER": 281.8222, "MEAN_ANOMALY": 211.3177, "EPHEMERIS_TYPE": 0, "CLASSIFICATION_TYPE": "U", "NORAD_CAT_ID": 66460, "ELEMENT_SET_NO": 999, "REV_AT_EPOCH": 388, "BSTAR": -0.020969, "MEAN_MOTION_DOT": -0.02040104, "MEAN_MOTION_DDOT": 0}, "tle": {"line1": "1 66460U 25262E   25335.83335647 -.02040104  00000+0 -20969-1 0  9995", "line2": "2 66460  42.9990 135.1648 0001421 281.8222 211.3177 15.67291476  3887"}}, "geometry": {"type": "Point", "coordinates": [4.320727898850245, -36.267627658111934]}}, {"type": "Feature", "properties": {"norad_id": 66461, "name": "STARLINK-35132", "group": "last-30-days", "lat": -37.051832514287874, "lon": 6.490693846078738, "alt_km": 374.74484278997625, "timestamp": "2025-12-02T07:10:07.866389+00:00", "meta": {"OBJECT_NAME": "STARLINK-35132", "OBJECT_ID": "2025-262F", "EPOCH": "2025-12-01T20:00:01.999008", "MEAN_MOTION": 15.67300694, "ECCENTRICITY": 0.0001431, "INCLINATION": 42.9991, "RA_OF_ASC_NODE": 135.1602, "ARG_OF_PERICENTER": 285.117, "MEAN_ANOMALY": 209.9306, "EPHEMERIS_TYPE": 0, "CLASSIFICATION_TYPE": "U", "NORAD_CAT_ID": 66461, "ELEMENT_SET_NO": 999, "REV_AT_EPOCH": 388, "BSTAR": -0.021051, "MEAN_MOTION_DOT": -0.02047767, "MEAN_MOTION_DDOT": 0}, "tle": {"line1": "1 66461U 25262F   25335.83335647 -.02047767  00000+0 -21051-1 0  9991", "line2": "2 66461  42.9991 135.1602 0001431 285.1170 209.9306 15.67300694  3889"}}, "geometry": {"type": "Point", "coordinates": [6.490693846078738, -37.051832514287874]}}, {"type": "Feature", "properties": {"norad_id": 66462, "name": "STARLINK-35499", "group": "last-30-days", "lat": -37.7969486256577, "lon": 8.708471765020311, "alt_km": 374.7527655716776, "timestamp": "2025-12-02T07:10:07.866407+00:00", "meta": {"OBJECT_NAME": "STARLINK-35499", "OBJECT_ID": "2025-262G", "EPOCH": "2025-12-01T20:00:01.999008", "MEAN_MOTION": 15.67302388, "ECCENTRICITY": 0.0001382, "INCLINATION": 42.9992, "RA_OF_ASC_NODE": 135.1548, "ARG_OF_PERICENTER": 283.3953, "MEAN_ANOMALY": 213.5719, "EPHEMERIS_TYPE": 0, "CLASSIFICATION_TYPE": "U", "NORAD_CAT_ID": 66462, "ELEMENT_SET_NO": 999, "REV_AT_EPOCH": 388, "BSTAR": -0.02111, "MEAN_MOTION_DOT": -0.02052852, "MEAN_MOTION_DDOT": 0}, "tle": {"line1": "1 66462U 25262G   25335.83335647 -.02052852  00000+0 -21110-1 0  9999", "line2": "2 66462  42.9992 135.1548 0001382 283.3953 213.5719 15.67302388  3885"}}, "geometry": {"type": "Point", "coordinates": [8.708471765020311, -37.7969486256577]}}, {"type": "Feature", "properties": {"norad_id": 66463, "name": "STARLINK-35463", "group": "last-30-days", "lat": -39.155647307101326, "lon": 13.271518090873007, "alt_km": 374.8407931850388, "timestamp": "2025-12-02T07:10:07.866426+00:00", "meta": {"OBJECT_NAME": "STARLINK-35463", "OBJECT_ID": "2025-262H", "EPOCH": "2025-12-01T20:00:01.999008", "MEAN_MOTION": 15.67300767, "ECCENTRICITY": 0.0001334, "INCLINATION": 42.9988, "RA_OF_ASC_NODE": 135.1447, "ARG_OF_PERICENTER": 286.2742, "MEAN_ANOMALY": 214.5301, "EPHEMERIS_TYPE": 0, "CLASSIFICATION_TYPE": "U", "NORAD_CAT_ID": 66463, "ELEMENT_SET_NO": 999, "REV_AT_EPOCH": 388, "BSTAR": -0.021119, "MEAN_MOTION_DOT": -0.02053442, "MEAN_MOTION_DDOT": 0}, "tle": {"line1": "1 66463U 25262H   25335.83335647 -.02053442  00000+0 -21119-1 0  9995", "line2": "2 66463  42.9988 135.1447 0001334 286.2742 214.5301 15.67300767  3881"}}, "geometry": {"type": "Point", "coordinates": [13.271518090873007, -39.155647307101326]}}, {"type": "Feature", "properties": {"norad_id": 66464, "name": "STARLINK-35435", "group": "last-30-days", "lat": -38.49793674790066, "lon": 10.96613240568437, "alt_km": 374.8044012835062, "timestamp": "2025-12-02T07:10:07.866444+00:00", "meta": {"OBJECT_NAME": "STARLINK-35435", "OBJECT_ID": "2025-262J", "EPOCH": "2025-12-01T20:00:01.999008", "MEAN_MOTION": 15.67299364, "ECCENTRICITY": 0.0001425, "INCLINATION": 42.9992, "RA_OF_ASC_NODE": 135.1501, "ARG_OF_PERICENTER": 287.5821, "MEAN_ANOMALY": 211.301, "EPHEMERIS_TYPE": 0, "CLASSIFICATION_TYPE": "U", "NORAD_CAT_ID": 66464, "ELEMENT_SET_NO": 999, "REV_AT_EPOCH": 388, "BSTAR": -0.021047, "MEAN_MOTION_DOT": -0.02047268, "MEAN_MOTION_DDOT": 0}, "tle": {"line1": "1 66464U 25262J   25335.83335647 -.02047268  00000+0 -21047-1 0  9995", "line2": "2 66464  42.9992 135.1501 0001425 287.5821 211.3010 15.67299364  3883"}}, "geometry": {"type": "Point", "coordinates": [10.96613240568437, -38.49793674790066]}}, {"type": "Feature", "properties": {"norad_id": 66465, "name": "STARLINK-35448", "group": "last-30-days", "lat": -40.32990768447073, "lon": 18.004138788964795, "alt_km": 374.78187023974624, "timestamp": "2025-12-02T07:10:07.866463+00:00", "meta": {"OBJECT_NAME": "STARLINK-35448", "OBJECT_ID": "2025-262K", "EPOCH": "2025-12-01T20:00:01.999008", "MEAN_MOTION": 15.67300171, "ECCENTRICITY": 0.0001359, "INCLINATION": 42.9991, "RA_OF_ASC_NODE": 135.1354, "ARG_OF_PERICENTER": 283.6482, "MEAN_ANOMALY": 220.9896, "EPHEMERIS_TYPE": 0, "CLASSIFICATION_TYPE": "U", "NORAD_CAT_ID": 66465, "ELEMENT_SET_NO": 999, "REV_AT_EPOCH": 388, "BSTAR": -0.021101, "MEAN_MOTION_DOT": -0.0205187, "MEAN_MOTION_DDOT": 0}, "tle": {"line1": "1 66465U 25262K   25335.83335647 -.02051870  00000+0 -21101-1 0  9991", "line2": "2 66465  42.9991 135.1354 0001359 283.6482 220.9896 15.67300171  3882"}}, "geometry": {"type": "Point", "coordinates": [18.004138788964795, -40.32990768447073]}}]}